0 COSMOS 2214
1 22185U 92068D   13281.46203486  .00000029  00000-0  10186-3 0  6831
2 22185 082.5917 061.5262 0007980 193.0633 229.4411 12.61480216965489
0 COSMOS 2214
1 22185U 92068D   13283.77814883  .00000020  00000-0  52898-4 0  6845
2 22185 082.5921 060.0529 0008076 188.1716 307.3270 12.61480700965777
0 COSMOS 2214
1 22185U 92068D   13285.83517250 -.00000001  00000-0 -66925-4 0  6850
2 22185 082.5927 058.7445 0008156 183.6542 288.8122 12.61480835966038
0 COSMOS 2214
1 22185U 92068D   13287.89848880 -.00000004  00000-0 -80430-4 0  6865
2 22185 082.5933 057.4325 0008229 179.0982 298.9002 12.61480673966293
0 COSMOS 2214
1 22185U 92068D   13290.33714455  .00000030  00000-0  11092-3 0  6873
2 22185 082.5937 055.8818 0008310 174.0576 213.1640 12.61480488966607
0 COSMOS 2214
1 22185U 92068D   13292.40776336  .00000039  00000-0  15909-3 0  6880
2 22185 082.5938 054.5653 0008392 169.3305 256.5683 12.61480470966865
0 COSMOS 2214
1 22185U 92068D   13294.80669650  .00000040  00000-0  16579-3 0  6893
2 22185 082.5939 053.0400 0008477 164.2016 350.6149 12.61480682967169
